[
  {
    "OBJECT_NAME": "STARLINK-4033",
    "OBJECT_ID": "22053AY",
    "EPOCH": "2025-11-11T06:40:50.312640",
    "MEAN_MOTION": 15.088423,
    "ECCENTRICITY": 0.0001407,
    "INCLINATION": 53.2176,
    "RA_OF_ASC_NODE": 320.7174,
    "ARG_OF_PERICENTER": 89.8942,
    "MEAN_ANOMALY": 270.2212,
    "EPHEMERIS_TYPE": 0,
    "CLASSIFICATION_TYPE": "U",
    "NORAD_CAT_ID": 52702,
    "ELEMENT_SET_NO": 999,
    "REV_AT_EPOCH": 19321,
    "BSTAR": 7.674400000000001e-05,
    "MEAN_MOTION_DOT": 9.34e-06,
    "MEAN_MOTION_DDOT": 0.0,
    "TLE_LINE1": "1 52702U 22053AY  25315.27836010  .00000934  00000+0  76744-4 0  9998",
    "TLE_LINE2": "2 52702  53.2176 320.7174 0001407  89.8942 270.2212 15.08842300193211",
    "COMMENT": "Grouped by shell and plane from TLE"
  },
  {
    "OBJECT_NAME": "STARLINK-3683",
    "OBJECT_ID": "22083AM",
    "EPOCH": "2025-11-11T04:49:32.822976",
    "MEAN_MOTION": 15.08843592,
    "ECCENTRICITY": 0.0001455,
    "INCLINATION": 53.2189,
    "RA_OF_ASC_NODE": 321.0256,
    "ARG_OF_PERICENTER": 93.5255,
    "MEAN_ANOMALY": 266.5904,
    "EPHEMERIS_TYPE": 0,
    "CLASSIFICATION_TYPE": "U",
    "NORAD_CAT_ID": 53167,
    "ELEMENT_SET_NO": 999,
    "REV_AT_EPOCH": 18367,
    "BSTAR": 8.762900000000001e-05,
    "MEAN_MOTION_DOT": 1.107e-05,
    "MEAN_MOTION_DDOT": 0.0,
    "TLE_LINE1": "1 53167U 22083AM  25315.20107434  .00001107  00000+0  87629-4 0  9998",
    "TLE_LINE2": "2 53167  53.2189 321.0256 0001455  93.5255 266.5904 15.08843592183677",
    "COMMENT": "Grouped by shell and plane from TLE"
  },
  {
    "OBJECT_NAME": "STARLINK-4117",
    "OBJECT_ID": "22083AP",
    "EPOCH": "2025-11-11T07:28:34.380192",
    "MEAN_MOTION": 15.08845486,
    "ECCENTRICITY": 0.0001644,
    "INCLINATION": 53.2187,
    "RA_OF_ASC_NODE": 320.8026,
    "ARG_OF_PERICENTER": 102.3863,
    "MEAN_ANOMALY": 257.7313,
    "EPHEMERIS_TYPE": 0,
    "CLASSIFICATION_TYPE": "U",
    "NORAD_CAT_ID": 53169,
    "ELEMENT_SET_NO": 999,
    "REV_AT_EPOCH": 18368,
    "BSTAR": 0.00015519,
    "MEAN_MOTION_DOT": 2.183e-05,
    "MEAN_MOTION_DDOT": 0.0,
    "TLE_LINE1": "1 53169U 22083AP  25315.31150903  .00002183  00000+0  15519-3 0  9994",
    "TLE_LINE2": "2 53169  53.2187 320.8026 0001644 102.3863 257.7313 15.08845486183684",
    "COMMENT": "Grouped by shell and plane from TLE"
  },
  {
    "OBJECT_NAME": "STARLINK-4294",
    "OBJECT_ID": "22083AW",
    "EPOCH": "2025-11-11T06:09:01.874880",
    "MEAN_MOTION": 15.08831145,
    "ECCENTRICITY": 0.0001677,
    "INCLINATION": 53.219,
    "RA_OF_ASC_NODE": 320.7043,
    "ARG_OF_PERICENTER": 102.3017,
    "MEAN_ANOMALY": 257.8163,
    "EPHEMERIS_TYPE": 0,
    "CLASSIFICATION_TYPE": "U",
    "NORAD_CAT_ID": 53176,
    "ELEMENT_SET_NO": 999,
    "REV_AT_EPOCH": 18368,
    "BSTAR": 4.1144e-05,
    "MEAN_MOTION_DOT": 3.67e-06,
    "MEAN_MOTION_DDOT": 0.0,
    "TLE_LINE1": "1 53176U 22083AW  25315.25627170  .00000367  00000+0  41144-4 0  9996",
    "TLE_LINE2": "2 53176  53.2190 320.7043 0001677 102.3017 257.8163 15.08831145183682",
    "COMMENT": "Grouped by shell and plane from TLE"
  },
  {
    "OBJECT_NAME": "STARLINK-5236",
    "OBJECT_ID": "23010F",
    "EPOCH": "2025-11-11T07:32:20.336064",
    "MEAN_MOTION": 14.98346878,
    "ECCENTRICITY": 0.0003005,
    "INCLINATION": 69.998,
    "RA_OF_ASC_NODE": 323.085,
    "ARG_OF_PERICENTER": 269.9964,
    "MEAN_ANOMALY": 90.0851,
    "EPHEMERIS_TYPE": 0,
    "CLASSIFICATION_TYPE": "U",
    "NORAD_CAT_ID": 55274,
    "ELEMENT_SET_NO": 999,
    "REV_AT_EPOCH": 15554,
    "BSTAR": 0.00013605,
    "MEAN_MOTION_DOT": 1.531e-05,
    "MEAN_MOTION_DDOT": 0.0,
    "TLE_LINE1": "1 55274U 23010F   25315.31412426  .00001531  00000+0  13605-3 0  9995",
    "TLE_LINE2": "2 55274  69.9980 323.0850 0003005 269.9964  90.0851 14.98346878155541",
    "COMMENT": "Grouped by shell and plane from TLE"
  },
  {
    "OBJECT_NAME": "STARLINK-5260",
    "OBJECT_ID": "23010G",
    "EPOCH": "2025-11-11T07:20:32.911872",
    "MEAN_MOTION": 14.98336181,
    "ECCENTRICITY": 0.0003111,
    "INCLINATION": 70.0005,
    "RA_OF_ASC_NODE": 323.0577,
    "ARG_OF_PERICENTER": 270.4616,
    "MEAN_ANOMALY": 89.6186,
    "EPHEMERIS_TYPE": 0,
    "CLASSIFICATION_TYPE": "U",
    "NORAD_CAT_ID": 55275,
    "ELEMENT_SET_NO": 999,
    "REV_AT_EPOCH": 15554,
    "BSTAR": 0.00034164,
    "MEAN_MOTION_DOT": 3.986e-05,
    "MEAN_MOTION_DDOT": 0.0,
    "TLE_LINE1": "1 55275U 23010G   25315.30593648  .00003986  00000+0  34164-3 0  9990",
    "TLE_LINE2": "2 55275  70.0005 323.0577 0003111 270.4616  89.6186 14.98336181155549",
    "COMMENT": "Grouped by shell and plane from TLE"
  },
  {
    "OBJECT_NAME": "STARLINK-5261",
    "OBJECT_ID": "23010H",
    "EPOCH": "2025-11-11T07:20:18.397536",
    "MEAN_MOTION": 14.98326094,
    "ECCENTRICITY": 0.0002824,
    "INCLINATION": 69.9986,
    "RA_OF_ASC_NODE": 323.0565,
    "ARG_OF_PERICENTER": 265.509,
    "MEAN_ANOMALY": 94.5746,
    "EPHEMERIS_TYPE": 0,
    "CLASSIFICATION_TYPE": "U",
    "NORAD_CAT_ID": 55276,
    "ELEMENT_SET_NO": 999,
    "REV_AT_EPOCH": 15553,
    "BSTAR": 0.0,
    "MEAN_MOTION_DOT": -5.62e-06,
    "MEAN_MOTION_DDOT": 0.0,
    "TLE_LINE1": "1 55276U 23010H   25315.30576849 -.00000562  00000+0 -39334-4 0  9999",
    "TLE_LINE2": "2 55276  69.9986 323.0565 0002824 265.5090  94.5746 14.98326094155531",
    "COMMENT": "Grouped by shell and plane from TLE"
  },
  {
    "OBJECT_NAME": "STARLINK-5338",
    "OBJECT_ID": "23010T",
    "EPOCH": "2025-11-11T07:08:17.635776",
    "MEAN_MOTION": 14.98350276,
    "ECCENTRICITY": 0.000304,
    "INCLINATION": 69.9997,
    "RA_OF_ASC_NODE": 323.0272,
    "ARG_OF_PERICENTER": 275.5719,
    "MEAN_ANOMALY": 84.5094,
    "EPHEMERIS_TYPE": 0,
    "CLASSIFICATION_TYPE": "U",
    "NORAD_CAT_ID": 55286,
    "ELEMENT_SET_NO": 999,
    "REV_AT_EPOCH": 15553,
    "BSTAR": 0.0003096,
    "MEAN_MOTION_DOT": 3.605e-05,
    "MEAN_MOTION_DDOT": 0.0,
    "TLE_LINE1": "1 55286U 23010T   25315.29742634  .00003605  00000+0  30960-3 0  9999",
    "TLE_LINE2": "2 55286  69.9997 323.0272 0003040 275.5719  84.5094 14.98350276155533",
    "COMMENT": "Grouped by shell and plane from TLE"
  },
  {
    "OBJECT_NAME": "STARLINK-5311",
    "OBJECT_ID": "23010V",
    "EPOCH": "2025-11-11T06:50:29.676480",
    "MEAN_MOTION": 14.98329972,
    "ECCENTRICITY": 0.0003164,
    "INCLINATION": 69.9989,
    "RA_OF_ASC_NODE": 322.9814,
    "ARG_OF_PERICENTER": 269.4194,
    "MEAN_ANOMALY": 90.6602,
    "EPHEMERIS_TYPE": 0,
    "CLASSIFICATION_TYPE": "U",
    "NORAD_CAT_ID": 55288,
    "ELEMENT_SET_NO": 999,
    "REV_AT_EPOCH": 15553,
    "BSTAR": 4.1463e-05,
    "MEAN_MOTION_DOT": 4.02e-06,
    "MEAN_MOTION_DDOT": 0.0,
    "TLE_LINE1": "1 55288U 23010V   25315.28506570  .00000402  00000+0  41463-4 0  9990",
    "TLE_LINE2": "2 55288  69.9989 322.9814 0003164 269.4194  90.6602 14.98329972155534",
    "COMMENT": "Grouped by shell and plane from TLE"
  },
  {
    "OBJECT_NAME": "STARLINK-5320",
    "OBJECT_ID": "23010W",
    "EPOCH": "2025-11-11T07:14:18.176928",
    "MEAN_MOTION": 14.98341041,
    "ECCENTRICITY": 0.0003107,
    "INCLINATION": 69.998,
    "RA_OF_ASC_NODE": 323.0404,
    "ARG_OF_PERICENTER": 264.2482,
    "MEAN_ANOMALY": 95.8323,
    "EPHEMERIS_TYPE": 0,
    "CLASSIFICATION_TYPE": "U",
    "NORAD_CAT_ID": 55289,
    "ELEMENT_SET_NO": 999,
    "REV_AT_EPOCH": 15553,
    "BSTAR": 2.0311000000000003e-05,
    "MEAN_MOTION_DOT": 1.49e-06,
    "MEAN_MOTION_DDOT": 0.0,
    "TLE_LINE1": "1 55289U 23010W   25315.30159927  .00000149  00000+0  20311-4 0  9991",
    "TLE_LINE2": "2 55289  69.9980 323.0404 0003107 264.2482  95.8323 14.98341041155531",
    "COMMENT": "Grouped by shell and plane from TLE"
  },
  {
    "OBJECT_NAME": "STARLINK-5266",
    "OBJECT_ID": "23010X",
    "EPOCH": "2025-11-11T07:02:16.634976",
    "MEAN_MOTION": 14.98324561,
    "ECCENTRICITY": 0.0003468,
    "INCLINATION": 69.9981,
    "RA_OF_ASC_NODE": 323.0112,
    "ARG_OF_PERICENTER": 269.1983,
    "MEAN_ANOMALY": 90.8779,
    "EPHEMERIS_TYPE": 0,
    "CLASSIFICATION_TYPE": "U",
    "NORAD_CAT_ID": 55290,
    "ELEMENT_SET_NO": 999,
    "REV_AT_EPOCH": 15553,
    "BSTAR": 8.136200000000001e-05,
    "MEAN_MOTION_DOT": 8.78e-06,
    "MEAN_MOTION_DDOT": 0.0,
    "TLE_LINE1": "1 55290U 23010X   25315.29324809  .00000878  00000+0  81362-4 0  9996",
    "TLE_LINE2": "2 55290  69.9981 323.0112 0003468 269.1983  90.8779 14.98324561155538",
    "COMMENT": "Grouped by shell and plane from TLE"
  },
  {
    "OBJECT_NAME": "STARLINK-5327",
    "OBJECT_ID": "23010Y",
    "EPOCH": "2025-11-11T07:26:20.416128",
    "MEAN_MOTION": 14.98329553,
    "ECCENTRICITY": 0.0003008,
    "INCLINATION": 69.9982,
    "RA_OF_ASC_NODE": 323.0677,
    "ARG_OF_PERICENTER": 269.5343,
    "MEAN_ANOMALY": 90.5471,
    "EPHEMERIS_TYPE": 0,
    "CLASSIFICATION_TYPE": "U",
    "NORAD_CAT_ID": 55291,
    "ELEMENT_SET_NO": 999,
    "REV_AT_EPOCH": 15553,
    "BSTAR": 3.6846000000000006e-05,
    "MEAN_MOTION_DOT": 3.47e-06,
    "MEAN_MOTION_DDOT": 0.0,
    "TLE_LINE1": "1 55291U 23010Y   25315.30995852  .00000347  00000+0  36846-4 0  9999",
    "TLE_LINE2": "2 55291  69.9982 323.0677 0003008 269.5343  90.5471 14.98329553155532",
    "COMMENT": "Grouped by shell and plane from TLE"
  },
  {
    "OBJECT_NAME": "STARLINK-5325",
    "OBJECT_ID": "23010Z",
    "EPOCH": "2025-11-11T06:44:15.183456",
    "MEAN_MOTION": 14.98336931,
    "ECCENTRICITY": 0.0003178,
    "INCLINATION": 69.9993,
    "RA_OF_ASC_NODE": 322.9658,
    "ARG_OF_PERICENTER": 270.4195,
    "MEAN_ANOMALY": 89.6599,
    "EPHEMERIS_TYPE": 0,
    "CLASSIFICATION_TYPE": "U",
    "NORAD_CAT_ID": 55292,
    "ELEMENT_SET_NO": 999,
    "REV_AT_EPOCH": 15553,
    "BSTAR": 2.5903e-06,
    "MEAN_MOTION_DOT": -6.2e-07,
    "MEAN_MOTION_DDOT": 0.0,
    "TLE_LINE1": "1 55292U 23010Z   25315.28073129 -.00000062  00000+0  25903-5 0  9999",
    "TLE_LINE2": "2 55292  69.9993 322.9658 0003178 270.4195  89.6599 14.98336931155534",
    "COMMENT": "Grouped by shell and plane from TLE"
  }
]